[{"OBJECT_NAME":"STARLINK-35625","OBJECT_ID":"2025-237AC","EPOCH":"2026-03-09T04:24:53.508096","MEAN_MOTION":15.30186526,"ECCENTRICITY":0.0001293,"INCLINATION":53.1615,"RA_OF_ASC_NODE":41.9345,"ARG_OF_PERICENTER":87.9908,"MEAN_ANOMALY":272.1241,"EPHEMERIS_TYPE":0,"CLASSIFICATION_TYPE":"U","NORAD_CAT_ID":66140,"ELEMENT_SET_NO":999,"REV_AT_EPOCH":2253,"BSTAR":0.0008586587,"MEAN_MOTION_DOT":0.00025147,"MEAN_MOTION_DDOT":0},{"OBJECT_NAME":"SIMSAT 2","OBJECT_ID":"2000-026B","EPOCH":"2026-03-09T20:25:01.673184","MEAN_MOTION":15.29036787,"ECCENTRICITY":0.00037035,"INCLINATION":86.3514,"RA_OF_ASC_NODE":176.4271,"ARG_OF_PERICENTER":287.9875,"MEAN_ANOMALY":72.0969,"EPHEMERIS_TYPE":0,"CLASSIFICATION_TYPE":"U","NORAD_CAT_ID":26366,"ELEMENT_SET_NO":999,"REV_AT_EPOCH":42803,"BSTAR":0.00013465771,"MEAN_MOTION_DOT":3.833e-5,"MEAN_MOTION_DDOT":0}]
